[{"OBJECT_NAME":"COSMOS 2456 (730)","OBJECT_ID":"2009-070A","EPOCH":"2026-03-02T13:37:18.846336","MEAN_MOTION":2.13103363,"ECCENTRICITY":0.0006278,"INCLINATION":64.9476,"RA_OF_ASC_NODE":74.6081,"ARG_OF_PERICENTER":305.3755,"MEAN_ANOMALY":235.5541,"EPHEMERIS_TYPE":0,"CLASSIFICATION_TYPE":"U","NORAD_CAT_ID":36111,"ELEMENT_SET_NO":999,"REV_AT_EPOCH":12615,"BSTAR":0,"MEAN_MOTION_DOT":2.7e-7,"MEAN_MOTION_DDOT":0},{"OBJECT_NAME":"COSMOS 2457 (733)","OBJECT_ID":"2009-070B","EPOCH":"2026-03-02T03:16:12.482112","MEAN_MOTION":2.13100813,"ECCENTRICITY":0.00021914,"INCLINATION":64.9327,"RA_OF_ASC_NODE":74.4689,"ARG_OF_PERICENTER":196.0759,"MEAN_ANOMALY":142.353,"EPHEMERIS_TYPE":0,"CLASSIFICATION_TYPE":"U","NORAD_CAT_ID":36112,"ELEMENT_SET_NO":999,"REV_AT_EPOCH":12614,"BSTAR":0,"MEAN_MOTION_DOT":3.0e-7,"MEAN_MOTION_DDOT":0},{"OBJECT_NAME":"COSMOS 2460 (732)","OBJECT_ID":"2010-007C","EPOCH":"2026-03-02T09:44:38.580576","MEAN_MOTION":2.13105983,"ECCENTRICITY":0.0001773,"INCLINATION":65.481,"RA_OF_ASC_NODE":318.0823,"ARG_OF_PERICENTER":12.0656,"MEAN_ANOMALY":174.0334,"EPHEMERIS_TYPE":0,"CLASSIFICATION_TYPE":"U","NORAD_CAT_ID":36402,"ELEMENT_SET_NO":999,"REV_AT_EPOCH":12445,"BSTAR":0,"MEAN_MOTION_DOT":-4.7e-7,"MEAN_MOTION_DDOT":0},{"OBJECT_NAME":"GPS BIIF-1  (PRN 25)","OBJECT_ID":"2010-022A","EPOCH":"2026-03-02T18:13:10.394112","MEAN_MOTION":2.00557144,"ECCENTRICITY":0.01273546,"INCLINATION":54.2892,"RA_OF_ASC_NODE":212.8472,"ARG_OF_PERICENTER":65.8685,"MEAN_ANOMALY":294.0033,"EPHEMERIS_TYPE":0,"CLASSIFICATION_TYPE":"U","NORAD_CAT_ID":36585,"ELEMENT_SET_NO":999,"REV_AT_EPOCH":11545,"BSTAR":0,"MEAN_MOTION_DOT":-1.1e-7,"MEAN_MOTION_DDOT":0},{"OBJECT_NAME":"BEIDOU-2 IGSO-1 (C06)","OBJECT_ID":"2010-036A","EPOCH":"2026-03-02T01:43:31.988064","MEAN_MOTION":1.00252677,"ECCENTRICITY":0.00539654,"INCLINATION":54.2922,"RA_OF_ASC_NODE":163.9315,"ARG_OF_PERICENTER":219.0406,"MEAN_ANOMALY":268.0169,"EPHEMERIS_TYPE":0,"CLASSIFICATION_TYPE":"U","NORAD_CAT_ID":36828,"ELEMENT_SET_NO":999,"REV_AT_EPOCH":5702,"BSTAR":0,"MEAN_MOTION_DOT":-1.63e-6,"MEAN_MOTION_DDOT":0},{"OBJECT_NAME":"BEIDOU-2 IGSO-2 (C07)","OBJECT_ID":"2010-068A","EPOCH":"2026-03-02T06:48:48.911616","MEAN_MOTION":1.00259336,"ECCENTRICITY":0.00474188,"INCLINATION":47.7363,"RA_OF_ASC_NODE":273.1534,"ARG_OF_PERICENTER":212.8884,"MEAN_ANOMALY":243.4237,"EPHEMERIS_TYPE":0,"CLASSIFICATION_TYPE":"U","NORAD_CAT_ID":37256,"ELEMENT_SET_NO":999,"REV_AT_EPOCH":5572,"BSTAR":0,"MEAN_MOTION_DOT":-1.69e-6,"MEAN_MOTION_DDOT":0},{"OBJECT_NAME":"BEIDOU-2 IGSO-3 (C08)","OBJECT_ID":"2011-013A","EPOCH":"2026-02-27T21:48:44.352288","MEAN_MOTION":1.00294022,"ECCENTRICITY":0.00350296,"INCLINATION":62.2642,"RA_OF_ASC_NODE":41.1818,"ARG_OF_PERICENTER":190.8154,"MEAN_ANOMALY":358.7681,"EPHEMERIS_TYPE":0,"CLASSIFICATION_TYPE":"U","NORAD_CAT_ID":37384,"ELEMENT_SET_NO":999,"REV_AT_EPOCH":5456,"BSTAR":0,"MEAN_MOTION_DOT":-1.54e-6,"MEAN_MOTION_DDOT":0},{"OBJECT_NAME":"BEIDOU-2 IGSO-4 (C09)","OBJECT_ID":"2011-038A","EPOCH":"2026-03-01T18:02:04.372800","MEAN_MOTION":1.00265713,"ECCENTRICITY":0.0154411,"INCLINATION":54.5889,"RA_OF_ASC_NODE":166.6436,"ARG_OF_PERICENTER":230.9971,"MEAN_ANOMALY":126.927,"EPHEMERIS_TYPE":0,"CLASSIFICATION_TYPE":"U","NORAD_CAT_ID":37763,"ELEMENT_SET_NO":999,"REV_AT_EPOCH":5356,"BSTAR":0,"MEAN_MOTION_DOT":-1.33e-6,"MEAN_MOTION_DDOT":0},{"OBJECT_NAME":"GSAT0101 (GALILEO-PFM)","OBJECT_ID":"2011-060A","EPOCH":"2026-02-22T11:08:37.810464","MEAN_MOTION":1.70475478,"ECCENTRICITY":0.00039756,"INCLINATION":57.0318,"RA_OF_ASC_NODE":344.8758,"ARG_OF_PERICENTER":357.0591,"MEAN_ANOMALY":2.9533,"EPHEMERIS_TYPE":0,"CLASSIFICATION_TYPE":"U","NORAD_CAT_ID":37846,"ELEMENT_SET_NO":999,"REV_AT_EPOCH":8916,"BSTAR":0,"MEAN_MOTION_DOT":-8.2e-7,"MEAN_MOTION_DDOT":0},{"OBJECT_NAME":"GSAT0102 (GALILEO-FM2)","OBJECT_ID":"2011-060B","EPOCH":"2026-03-01T01:30:59.316192","MEAN_MOTION":1.70475778,"ECCENTRICITY":0.00054225,"INCLINATION":57.0301,"RA_OF_ASC_NODE":344.6971,"ARG_OF_PERICENTER":341.2092,"MEAN_ANOMALY":154.1953,"EPHEMERIS_TYPE":0,"CLASSIFICATION_TYPE":"U","NORAD_CAT_ID":37847,"ELEMENT_SET_NO":999,"REV_AT_EPOCH":8928,"BSTAR":0,"MEAN_MOTION_DOT":-1.06e-6,"MEAN_MOTION_DDOT":0},{"OBJECT_NAME":"COSMOS 2476 (744)","OBJECT_ID":"2011-064A","EPOCH":"2026-03-02T01:58:37.937856","MEAN_MOTION":2.13103599,"ECCENTRICITY":0.00252054,"INCLINATION":65.2077,"RA_OF_ASC_NODE":76.4865,"ARG_OF_PERICENTER":241.1677,"MEAN_ANOMALY":195.882,"EPHEMERIS_TYPE":0,"CLASSIFICATION_TYPE":"U","NORAD_CAT_ID":37867,"ELEMENT_SET_NO":999,"REV_AT_EPOCH":11148,"BSTAR":0,"MEAN_MOTION_DOT":3.4e-7,"MEAN_MOTION_DDOT":0},{"OBJECT_NAME":"COSMOS 2477 (745)","OBJECT_ID":"2011-064B","EPOCH":"2026-03-02T06:04:07.472928","MEAN_MOTION":2.13102677,"ECCENTRICITY":0.00222856,"INCLINATION":65.2142,"RA_OF_ASC_NODE":76.5592,"ARG_OF_PERICENTER":242.7081,"MEAN_ANOMALY":145.7945,"EPHEMERIS_TYPE":0,"CLASSIFICATION_TYPE":"U","NORAD_CAT_ID":37868,"ELEMENT_SET_NO":999,"REV_AT_EPOCH":11148,"BSTAR":0,"MEAN_MOTION_DOT":3.3e-7,"MEAN_MOTION_DDOT":0},{"OBJECT_NAME":"COSMOS 2475 (743)","OBJECT_ID":"2011-064C","EPOCH":"2026-03-02T08:05:12.166368","MEAN_MOTION":2.1310144,"ECCENTRICITY":0.00280999,"INCLINATION":65.2213,"RA_OF_ASC_NODE":76.5769,"ARG_OF_PERICENTER":254.3586,"MEAN_ANOMALY":154.2263,"EPHEMERIS_TYPE":0,"CLASSIFICATION_TYPE":"U","NORAD_CAT_ID":37869,"ELEMENT_SET_NO":999,"REV_AT_EPOCH":11149,"BSTAR":0,"MEAN_MOTION_DOT":3.2e-7,"MEAN_MOTION_DDOT":0},{"OBJECT_NAME":"BEIDOU-2 IGSO-5 (C10)","OBJECT_ID":"2011-073A","EPOCH":"2026-03-01T12:21:35.119584","MEAN_MOTION":1.00272949,"ECCENTRICITY":0.01085706,"INCLINATION":47.8731,"RA_OF_ASC_NODE":272.8747,"ARG_OF_PERICENTER":221.0681,"MEAN_ANOMALY":305.9392,"EPHEMERIS_TYPE":0,"CLASSIFICATION_TYPE":"U","NORAD_CAT_ID":37948,"ELEMENT_SET_NO":999,"REV_AT_EPOCH":5205,"BSTAR":0,"MEAN_MOTION_DOT":-1.33e-6,"MEAN_MOTION_DDOT":0},{"OBJECT_NAME":"LUCH 5A (SDCM/PRN 140)","OBJECT_ID":"2011-074B","EPOCH":"2026-03-02T15:19:48.687744","MEAN_MOTION":1.00275091,"ECCENTRICITY":0.0004065,"INCLINATION":8.4827,"RA_OF_ASC_NODE":75.3733,"ARG_OF_PERICENTER":242.161,"MEAN_ANOMALY":239.901,"EPHEMERIS_TYPE":0,"CLASSIFICATION_TYPE":"U","NORAD_CAT_ID":37951,"ELEMENT_SET_NO":999,"REV_AT_EPOCH":5198,"BSTAR":0,"MEAN_MOTION_DOT":-6.1e-7,"MEAN_MOTION_DDOT":0}]
